{"fetched_at":"2026-03-29T16:36:15Z","count":15609,"tles":[{"name":"STARLINK-33674","line1":"1 63329U 25057Y   26087.82812172  .00023502  00000+0  86026-3 0  9992","line2":"2 63329  42.9965 282.8301 0001922 285.9251  74.1389 15.27602217 58705","category":"Starlink"}]}